{
"type": "FeatureCollection",
"name": "distritos_arequipa",
"crs": { "type": "name", "properties": { "name": "urn:ogc:def:crs:OGC:1.3:CRS84" } },
"features": [
{ "type": "Feature", "properties": { "GID_3": "PER.4.1.2_1", "GID_0": "PER", "COUNTRY": "Peru", "GID_1": "PER.4_1", "NAME_1": "Arequipa", "NL_NAME_1": "NA", "GID_2": "PER.4.1_1", "NAME_2": "Arequipa", "NL_NAME_2": "NA", "NAME_3": "Arequipa", "VARNAME_3": "NA", "NL_NAME_3": "NA", "TYPE_3": "Distrito", "ENGTYPE_3": "District", "CC_3": "NA", "HASC_3": "NA" }, "geometry": { "type": "MultiPolygon", "coordinates": [ [ [ [ -71.532, -16.3735 ], [ -71.5282, -16.3747 ], [ -71.5316, -16.3776 ], [ -71.5317, -16.3857 ], [ -71.529, -16.3876 ], [ -71.5252, -16.397 ], [ -71.5159, -16.404 ], [ -71.5135, -16.4105 ], [ -71.5238, -16.412 ], [ -71.5474, -16.4233 ], [ -71.5522, -16.4278 ], [ -71.5586, -16.4306 ], [ -71.5598, -16.4331 ], [ -71.5632, -16.4348 ], [ -71.5659, -16.4338 ], [ -71.5603, -16.4252 ], [ -71.5509, -16.416 ], [ -71.5535, -16.4135 ], [ -71.5507, -16.4 ], [ -71.5454, -16.3985 ], [ -71.5404, -16.3929 ], [ -71.5372, -16.3924 ], [ -71.532, -16.3735 ] ] ] ] } },
{ "type": "Feature", "properties": { "GID_3": "PER.4.1.3_1", "GID_0": "PER", "COUNTRY": "Peru", "GID_1": "PER.4_1", "NAME_1": "Arequipa", "NL_NAME_1": "NA", "GID_2": "PER.4.1_1", "NAME_2": "Arequipa", "NL_NAME_2": "NA", "NAME_3": "Cayma", "VARNAME_3": "NA", "NL_NAME_3": "NA", "TYPE_3": "Distrito", "ENGTYPE_3": "District", "CC_3": "NA", "HASC_3": "NA" }, "geometry": { "type": "MultiPolygon", "coordinates": [ [ [ [ -71.4114, -16.2963 ], [ -71.4253, -16.2902 ], [ -71.437, -16.2895 ], [ -71.4439, -16.2867 ], [ -71.456, -16.2859 ], [ -71.4602, -16.2841 ], [ -71.4619, -16.2883 ], [ -71.4652, -16.2912 ], [ -71.4746, -16.2915 ], [ -71.4782, -16.2961 ], [ -71.4821, -16.298 ], [ -71.4859, -16.3038 ], [ -71.491, -16.3054 ], [ -71.4936, -16.31 ], [ -71.5027, -16.3111 ], [ -71.5078, -16.3163 ], [ -71.517, -16.3189 ], [ -71.5221, -16.3235 ], [ -71.5277, -16.3255 ], [ -71.5347, -16.3352 ], [ -71.5375, -16.3541 ], [ -71.5369, -16.3643 ], [ -71.5336, -16.372 ], [ -71.5339, -16.3769 ], [ -71.5361, -16.3792 ], [ -71.542, -16.3802 ], [ -71.5479, -16.3932 ], [ -71.5515, -16.3925 ], [ -71.5523, -16.3816 ], [ -71.5544, -16.3773 ], [ -71.5524, -16.3721 ], [ -71.5543, -16.3602 ], [ -71.5531, -16.35 ], [ -71.557, -16.3447 ], [ -71.5537, -16.333 ], [ -71.5553, -16.325 ], [ -71.5536, -16.3126 ], [ -71.5485, -16.3017 ], [ -71.5497, -16.2946 ], [ -71.5479, -16.2865 ], [ -71.5431, -16.2771 ], [ -71.5372, -16.2723 ], [ -71.53, -16.26 ], [ -71.5284, -16.2475 ], [ -71.5296, -16.2428 ], [ -71.5257, -16.2387 ], [ -71.5218, -16.225 ], [ -71.5162, -16.2206 ], [ -71.5067, -16.2189 ], [ -71.5045, -16.2159 ], [ -71.5041, -16.211 ], [ -71.507, -16.2048 ], [ -71.5059, -16.2004 ], [ -71.4939, -16.191 ], [ -71.4776, -16.1838 ], [ -71.4729, -16.1737 ], [ -71.4641, -16.1639 ], [ -71.455, -16.1636 ], [ -71.4478, -16.1663 ], [ -71.4379, -16.1658 ], [ -71.4265, -16.1691 ], [ -71.4242, -16.1842 ], [ -71.4161, -16.1926 ], [ -71.4112, -16.2043 ], [ -71.4116, -16.2083 ], [ -71.3932, -16.2042 ], [ -71.3828, -16.2061 ], [ -71.3738, -16.2103 ], [ -71.3609, -16.2127 ], [ -71.3488, -16.2229 ], [ -71.3441, -16.2231 ], [ -71.3392, -16.2255 ], [ -71.3393, -16.2347 ], [ -71.3417, -16.2418 ], [ -71.3463, -16.2473 ], [ -71.3499, -16.247 ], [ -71.3514, -16.2504 ], [ -71.3571, -16.2535 ], [ -71.3834, -16.2883 ], [ -71.3971, -16.2956 ], [ -71.4114, -16.2963 ] ] ] ] } },
{ "type": "Feature", "properties": { "GID_3": "PER.4.1.5_1", "GID_0": "PER", "COUNTRY": "Peru", "GID_1": "PER.4_1", "NAME_1": "Arequipa", "NL_NAME_1": "NA", "GID_2": "PER.4.1_1", "NAME_2": "Arequipa", "NL_NAME_2": "NA", "NAME_3": "Characato", "VARNAME_3": "NA", "NL_NAME_3": "NA", "TYPE_3": "Distrito", "ENGTYPE_3": "District", "CC_3": "NA", "HASC_3": "NA" }, "geometry": { "type": "MultiPolygon", "coordinates": [ [ [ [ -71.407, -16.4284 ], [ -71.398, -16.4338 ], [ -71.3926, -16.4399 ], [ -71.3868, -16.4359 ], [ -71.3778, -16.4397 ], [ -71.3693, -16.4411 ], [ -71.3455, -16.4389 ], [ -71.333, -16.4405 ], [ -71.3103, -16.4376 ], [ -71.3012, -16.431 ], [ -71.2932, -16.4294 ], [ -71.2817, -16.4237 ], [ -71.2788, -16.4207 ], [ -71.2769, -16.4152 ], [ -71.2618, -16.403 ], [ -71.2549, -16.4043 ], [ -71.2507, -16.4084 ], [ -71.2444, -16.4201 ], [ -71.2405, -16.4243 ], [ -71.2401, -16.4314 ], [ -71.2645, -16.4324 ], [ -71.2739, -16.4372 ], [ -71.2864, -16.4391 ], [ -71.2962, -16.4448 ], [ -71.3215, -16.4531 ], [ -71.3389, -16.463 ], [ -71.3501, -16.4746 ], [ -71.359, -16.4764 ], [ -71.3647, -16.4797 ], [ -71.3819, -16.4734 ], [ -71.392, -16.4752 ], [ -71.3962, -16.4784 ], [ -71.3967, -16.4816 ], [ -71.4088, -16.4908 ], [ -71.4174, -16.4889 ], [ -71.4203, -16.4917 ], [ -71.4278, -16.4909 ], [ -71.4366, -16.4942 ], [ -71.4505, -16.4948 ], [ -71.4538, -16.4842 ], [ -71.4648, -16.4809 ], [ -71.4718, -16.4847 ], [ -71.489, -16.484 ], [ -71.4949, -16.4872 ], [ -71.503, -16.4881 ], [ -71.5163, -16.4851 ], [ -71.5027, -16.4675 ], [ -71.4965, -16.4654 ], [ -71.4919, -16.4613 ], [ -71.473, -16.4678 ], [ -71.465, -16.4622 ], [ -71.4601, -16.4622 ], [ -71.4536, -16.457 ], [ -71.4381, -16.4541 ], [ -71.4137, -16.4615 ], [ -71.4141, -16.4559 ], [ -71.4083, -16.4423 ], [ -71.407, -16.4284 ] ] ] ] } },
{ "type": "Feature", "properties": { "GID_3": "PER.4.1.12_1", "GID_0": "PER", "COUNTRY": "Peru", "GID_1": "PER.4_1", "NAME_1": "Arequipa", "NL_NAME_1": "NA", "GID_2": "PER.4.1_1", "NAME_2": "Arequipa", "NL_NAME_2": "NA", "NAME_3": "Miraflores", "VARNAME_3": "NA", "NL_NAME_3": "NA", "TYPE_3": "Distrito", "ENGTYPE_3": "District", "CC_3": "NA", "HASC_3": "NA" }, "geometry": { "type": "MultiPolygon", "coordinates": [ [ [ [ -71.5285, -16.3905 ], [ -71.5178, -16.3855 ], [ -71.5113, -16.3764 ], [ -71.4943, -16.3663 ], [ -71.4711, -16.3481 ], [ -71.4571, -16.3348 ], [ -71.4471, -16.3279 ], [ -71.4445, -16.3215 ], [ -71.4348, -16.3171 ], [ -71.4252, -16.3049 ], [ -71.4114, -16.2963 ], [ -71.4209, -16.3208 ], [ -71.4259, -16.3251 ], [ -71.4296, -16.3313 ], [ -71.4507, -16.3472 ], [ -71.4575, -16.3569 ], [ -71.4714, -16.3682 ], [ -71.483, -16.3823 ], [ -71.4915, -16.3859 ], [ -71.4968, -16.3929 ], [ -71.5035, -16.3941 ], [ -71.5095, -16.3971 ], [ -71.5159, -16.404 ], [ -71.5252, -16.397 ], [ -71.5285, -16.3905 ] ] ] ] } },
{ "type": "Feature", "properties": { "GID_3": "PER.4.1.14_1", "GID_0": "PER", "COUNTRY": "Peru", "GID_1": "PER.4_1", "NAME_1": "Arequipa", "NL_NAME_1": "NA", "GID_2": "PER.4.1_1", "NAME_2": "Arequipa", "NL_NAME_2": "NA", "NAME_3": "Paucarpata", "VARNAME_3": "NA", "NL_NAME_3": "NA", "TYPE_3": "Distrito", "ENGTYPE_3": "District", "CC_3": "NA", "HASC_3": "NA" }, "geometry": { "type": "MultiPolygon", "coordinates": [ [ [ [ -71.4504, -16.3929 ], [ -71.4471, -16.4003 ], [ -71.4505, -16.4069 ], [ -71.4469, -16.4152 ], [ -71.4301, -16.4169 ], [ -71.4278, -16.4191 ], [ -71.4321, -16.4197 ], [ -71.44, -16.4256 ], [ -71.4568, -16.4296 ], [ -71.4646, -16.4376 ], [ -71.4687, -16.4371 ], [ -71.4713, -16.4388 ], [ -71.4866, -16.4371 ], [ -71.4938, -16.439 ], [ -71.4976, -16.4412 ], [ -71.5017, -16.4483 ], [ -71.5047, -16.4439 ], [ -71.5053, -16.4398 ], [ -71.516, -16.4255 ], [ -71.5175, -16.4184 ], [ -71.5135, -16.4105 ], [ -71.4866, -16.4043 ], [ -71.4826, -16.4015 ], [ -71.4693, -16.4021 ], [ -71.4504, -16.3929 ] ] ] ] } },
{ "type": "Feature", "properties": { "GID_3": "PER.4.1.18_1", "GID_0": "PER", "COUNTRY": "Peru", "GID_1": "PER.4_1", "NAME_1": "Arequipa", "NL_NAME_1": "NA", "GID_2": "PER.4.1_1", "NAME_2": "Arequipa", "NL_NAME_2": "NA", "NAME_3": "Sabandia", "VARNAME_3": "NA", "NL_NAME_3": "NA", "TYPE_3": "Distrito", "ENGTYPE_3": "District", "CC_3": "NA", "HASC_3": "NA" }, "geometry": { "type": "MultiPolygon", "coordinates": [ [ [ [ -71.407, -16.4284 ], [ -71.4083, -16.4423 ], [ -71.4141, -16.4559 ], [ -71.4137, -16.4615 ], [ -71.4381, -16.4541 ], [ -71.4536, -16.457 ], [ -71.4601, -16.4622 ], [ -71.465, -16.4622 ], [ -71.473, -16.4678 ], [ -71.4919, -16.4613 ], [ -71.4965, -16.4654 ], [ -71.5027, -16.4675 ], [ -71.5163, -16.4846 ], [ -71.5162, -16.4789 ], [ -71.5215, -16.4787 ], [ -71.518, -16.4657 ], [ -71.5198, -16.4621 ], [ -71.5123, -16.4555 ], [ -71.5037, -16.451 ], [ -71.4976, -16.4412 ], [ -71.4938, -16.439 ], [ -71.4866, -16.4371 ], [ -71.4713, -16.4388 ], [ -71.4687, -16.4371 ], [ -71.4646, -16.4376 ], [ -71.4568, -16.4296 ], [ -71.44, -16.4256 ], [ -71.4321, -16.4197 ], [ -71.4278, -16.4191 ], [ -71.4256, -16.421 ], [ -71.4246, -16.4268 ], [ -71.4226, -16.4289 ], [ -71.4152, -16.4271 ], [ -71.407, -16.4284 ] ] ] ] } },
{ "type": "Feature", "properties": { "GID_3": "PER.4.1.19_1", "GID_0": "PER", "COUNTRY": "Peru", "GID_1": "PER.4_1", "NAME_1": "Arequipa", "NL_NAME_1": "NA", "GID_2": "PER.4.1_1", "NAME_2": "Arequipa", "NL_NAME_2": "NA", "NAME_3": "Sachaca", "VARNAME_3": "NA", "NL_NAME_3": "NA", "TYPE_3": "Distrito", "ENGTYPE_3": "District", "CC_3": "NA", "HASC_3": "NA" }, "geometry": { "type": "MultiPolygon", "coordinates": [ [ [ [ -71.5521, -16.4072 ], [ -71.5535, -16.4135 ], [ -71.5509, -16.416 ], [ -71.5644, -16.4304 ], [ -71.5734, -16.4462 ], [ -71.5789, -16.4416 ], [ -71.5871, -16.4221 ], [ -71.5948, -16.414 ], [ -71.5996, -16.4114 ], [ -71.6008, -16.4073 ], [ -71.5698, -16.4045 ], [ -71.5576, -16.4091 ], [ -71.5521, -16.4072 ] ] ] ] } },
{ "type": "Feature", "properties": { "GID_3": "PER.4.1.24_1", "GID_0": "PER", "COUNTRY": "Peru", "GID_1": "PER.4_1", "NAME_1": "Arequipa", "NL_NAME_1": "NA", "GID_2": "PER.4.1_1", "NAME_2": "Arequipa", "NL_NAME_2": "NA", "NAME_3": "Socabaya", "VARNAME_3": "NA", "NL_NAME_3": "NA", "TYPE_3": "Distrito", "ENGTYPE_3": "District", "CC_3": "NA", "HASC_3": "NA" }, "geometry": { "type": "MultiPolygon", "coordinates": [ [ [ [ -71.5163, -16.4846 ], [ -71.503, -16.4881 ], [ -71.5064, -16.4919 ], [ -71.516, -16.4917 ], [ -71.5237, -16.4893 ], [ -71.5307, -16.4848 ], [ -71.5283, -16.4903 ], [ -71.5241, -16.4917 ], [ -71.5198, -16.4996 ], [ -71.5167, -16.501 ], [ -71.5202, -16.503 ], [ -71.5207, -16.5067 ], [ -71.5248, -16.5076 ], [ -71.529, -16.5047 ], [ -71.5402, -16.5048 ], [ -71.5455, -16.4949 ], [ -71.5537, -16.4972 ], [ -71.5612, -16.4939 ], [ -71.5545, -16.4853 ], [ -71.5536, -16.4757 ], [ -71.5569, -16.4688 ], [ -71.557, -16.4648 ], [ -71.5534, -16.4614 ], [ -71.5514, -16.4558 ], [ -71.5483, -16.4554 ], [ -71.547, -16.4527 ], [ -71.5411, -16.4519 ], [ -71.5375, -16.4329 ], [ -71.5331, -16.433 ], [ -71.53, -16.4364 ], [ -71.525, -16.4425 ], [ -71.5229, -16.4504 ], [ -71.5184, -16.45 ], [ -71.5123, -16.4555 ], [ -71.52, -16.4626 ], [ -71.518, -16.4657 ], [ -71.5215, -16.4787 ], [ -71.5162, -16.4789 ], [ -71.5163, -16.4846 ] ] ] ] } },
{ "type": "Feature", "properties": { "GID_3": "PER.4.1.25_1", "GID_0": "PER", "COUNTRY": "Peru", "GID_1": "PER.4_1", "NAME_1": "Arequipa", "NL_NAME_1": "NA", "GID_2": "PER.4.1_1", "NAME_2": "Arequipa", "NL_NAME_2": "NA", "NAME_3": "Tiabaya", "VARNAME_3": "NA", "NL_NAME_3": "NA", "TYPE_3": "Distrito", "ENGTYPE_3": "District", "CC_3": "NA", "HASC_3": "NA" }, "geometry": { "type": "MultiPolygon", "coordinates": [ [ [ [ -71.605, -16.4076 ], [ -71.6008, -16.4073 ], [ -71.5996, -16.4114 ], [ -71.5901, -16.4184 ], [ -71.5829, -16.4299 ], [ -71.5789, -16.4416 ], [ -71.5734, -16.4462 ], [ -71.5821, -16.4553 ], [ -71.5847, -16.462 ], [ -71.5819, -16.4692 ], [ -71.5753, -16.478 ], [ -71.5742, -16.4907 ], [ -71.5831, -16.4968 ], [ -71.5827, -16.5076 ], [ -71.5884, -16.5115 ], [ -71.5947, -16.5195 ], [ -71.5997, -16.5137 ], [ -71.5993, -16.5109 ], [ -71.6035, -16.51 ], [ -71.6028, -16.5063 ], [ -71.6056, -16.5055 ], [ -71.606, -16.5011 ], [ -71.6087, -16.5012 ], [ -71.6072, -16.4992 ], [ -71.6115, -16.4853 ], [ -71.6231, -16.4698 ], [ -71.6254, -16.4621 ], [ -71.6201, -16.4533 ], [ -71.6203, -16.4567 ], [ -71.6154, -16.4527 ], [ -71.6016, -16.4544 ], [ -71.612, -16.4476 ], [ -71.6163, -16.4414 ], [ -71.613, -16.4299 ], [ -71.6169, -16.4216 ], [ -71.6166, -16.4179 ], [ -71.605, -16.4076 ] ] ] ] } },
{ "type": "Feature", "properties": { "GID_3": "PER.4.1.26_1", "GID_0": "PER", "COUNTRY": "Peru", "GID_1": "PER.4_1", "NAME_1": "Arequipa", "NL_NAME_1": "NA", "GID_2": "PER.4.1_1", "NAME_2": "Arequipa", "NL_NAME_2": "NA", "NAME_3": "Uchumayo", "VARNAME_3": "NA", "NL_NAME_3": "NA", "TYPE_3": "Distrito", "ENGTYPE_3": "District", "CC_3": "NA", "HASC_3": "NA" }, "geometry": { "type": "MultiPolygon", "coordinates": [ [ [ [ -71.6502, -16.3907 ], [ -71.6528, -16.3939 ], [ -71.651, -16.3945 ], [ -71.6473, -16.3914 ], [ -71.6485, -16.3942 ], [ -71.6461, -16.397 ], [ -71.6467, -16.4001 ], [ -71.6448, -16.3984 ], [ -71.6252, -16.3985 ], [ -71.6072, -16.3937 ], [ -71.6142, -16.4033 ], [ -71.6143, -16.4053 ], [ -71.605, -16.4076 ], [ -71.6166, -16.4179 ], [ -71.6169, -16.4216 ], [ -71.613, -16.4299 ], [ -71.6163, -16.4414 ], [ -71.612, -16.4476 ], [ -71.6016, -16.4544 ], [ -71.6154, -16.4527 ], [ -71.6203, -16.4567 ], [ -71.6201, -16.4533 ], [ -71.6254, -16.4621 ], [ -71.6231, -16.4698 ], [ -71.6115, -16.4853 ], [ -71.6072, -16.4992 ], [ -71.6087, -16.5012 ], [ -71.606, -16.5011 ], [ -71.6056, -16.5055 ], [ -71.6028, -16.5063 ], [ -71.6035, -16.51 ], [ -71.5993, -16.5109 ], [ -71.5997, -16.5137 ], [ -71.5959, -16.5185 ], [ -71.5974, -16.5218 ], [ -71.6082, -16.5224 ], [ -71.6136, -16.5244 ], [ -71.6207, -16.5224 ], [ -71.6233, -16.5308 ], [ -71.6222, -16.5389 ], [ -71.6239, -16.5413 ], [ -71.6319, -16.545 ], [ -71.632, -16.547 ], [ -71.6396, -16.5523 ], [ -71.6507, -16.558 ], [ -71.6646, -16.5555 ], [ -71.6992, -16.5408 ], [ -71.7055, -16.5413 ], [ -71.716, -16.53 ], [ -71.7193, -16.5238 ], [ -71.7277, -16.5219 ], [ -71.7409, -16.5101 ], [ -71.7492, -16.5096 ], [ -71.7539, -16.5077 ], [ -71.7626, -16.4985 ], [ -71.7716, -16.4924 ], [ -71.7766, -16.4851 ], [ -71.7664, -16.4794 ], [ -71.7643, -16.4658 ], [ -71.7578, -16.46 ], [ -71.7512, -16.4582 ], [ -71.7487, -16.451 ], [ -71.7428, -16.4423 ], [ -71.7366, -16.4398 ], [ -71.7368, -16.4379 ], [ -71.7395, -16.4362 ], [ -71.7406, -16.4315 ], [ -71.7527, -16.4298 ], [ -71.7578, -16.4267 ], [ -71.762, -16.4268 ], [ -71.765, -16.4309 ], [ -71.7681, -16.4301 ], [ -71.7709, -16.423 ], [ -71.7695, -16.4161 ], [ -71.7725, -16.4136 ], [ -71.7695, -16.4046 ], [ -71.7703, -16.4028 ], [ -71.7747, -16.4003 ], [ -71.7798, -16.4002 ], [ -71.782, -16.3969 ], [ -71.7868, -16.3979 ], [ -71.7968, -16.3939 ], [ -71.8056, -16.3949 ], [ -71.8146, -16.3989 ], [ -71.8179, -16.3908 ], [ -71.8221, -16.3852 ], [ -71.8215, -16.381 ], [ -71.8165, -16.3819 ], [ -71.8097, -16.3774 ], [ -71.8032, -16.3759 ], [ -71.7977, -16.3792 ], [ -71.7952, -16.377 ], [ -71.7877, -16.3762 ], [ -71.7873, -16.3837 ], [ -71.779, -16.382 ], [ -71.7705, -16.3755 ], [ -71.7668, -16.3755 ], [ -71.7633, -16.3734 ], [ -71.7604, -16.3688 ], [ -71.7544, -16.3668 ], [ -71.7525, -16.3719 ], [ -71.7494, -16.3745 ], [ -71.7317, -16.3798 ], [ -71.7313, -16.3827 ], [ -71.7339, -16.3851 ], [ -71.7326, -16.3937 ], [ -71.7304, -16.3915 ], [ -71.7208, -16.3912 ], [ -71.7132, -16.394 ], [ -71.7012, -16.3838 ], [ -71.6997, -16.3854 ], [ -71.6969, -16.384 ], [ -71.6962, -16.3885 ], [ -71.6938, -16.3884 ], [ -71.6947, -16.391 ], [ -71.6929, -16.3935 ], [ -71.6854, -16.3902 ], [ -71.6861, -16.3941 ], [ -71.6849, -16.3953 ], [ -71.6811, -16.3925 ], [ -71.6586, -16.3949 ], [ -71.6549, -16.3927 ], [ -71.6535, -16.3884 ], [ -71.6523, -16.3916 ], [ -71.6502, -16.3907 ] ] ] ] } },
{ "type": "Feature", "properties": { "GID_3": "PER.4.1.28_1", "GID_0": "PER", "COUNTRY": "Peru", "GID_1": "PER.4_1", "NAME_1": "Arequipa", "NL_NAME_1": "NA", "GID_2": "PER.4.1_1", "NAME_2": "Arequipa", "NL_NAME_2": "NA", "NAME_3": "Yanahuara", "VARNAME_3": "NA", "NL_NAME_3": "NA", "TYPE_3": "Distrito", "ENGTYPE_3": "District", "CC_3": "NA", "HASC_3": "NA" }, "geometry": { "type": "MultiPolygon", "coordinates": [ [ [ [ -71.5336, -16.372 ], [ -71.532, -16.3735 ], [ -71.5329, -16.3791 ], [ -71.5372, -16.3924 ], [ -71.5404, -16.3929 ], [ -71.5454, -16.3985 ], [ -71.5507, -16.4 ], [ -71.5521, -16.4072 ], [ -71.5576, -16.4091 ], [ -71.5698, -16.4045 ], [ -71.5603, -16.3958 ], [ -71.56, -16.3931 ], [ -71.5518, -16.3906 ], [ -71.5505, -16.3936 ], [ -71.5479, -16.3932 ], [ -71.542, -16.3802 ], [ -71.5344, -16.378 ], [ -71.5336, -16.372 ] ] ] ] } },
{ "type": "Feature", "properties": { "GID_3": "PER.4.1.30_1", "GID_0": "PER", "COUNTRY": "Peru", "GID_1": "PER.4_1", "NAME_1": "Arequipa", "NL_NAME_1": "NA", "GID_2": "PER.4.1_1", "NAME_2": "Arequipa", "NL_NAME_2": "NA", "NAME_3": "Yura", "VARNAME_3": "NA", "NL_NAME_3": "NA", "TYPE_3": "Distrito", "ENGTYPE_3": "District", "CC_3": "NA", "HASC_3": "NA" }, "geometry": { "type": "MultiPolygon", "coordinates": [ [ [ [ -71.3392, -16.2255 ], [ -71.3441, -16.2231 ], [ -71.3488, -16.2229 ], [ -71.3609, -16.2127 ], [ -71.3738, -16.2103 ], [ -71.3828, -16.2061 ], [ -71.3932, -16.2042 ], [ -71.4116, -16.2083 ], [ -71.4112, -16.2043 ], [ -71.4161, -16.1926 ], [ -71.4242, -16.1842 ], [ -71.4265, -16.1691 ], [ -71.4379, -16.1658 ], [ -71.4478, -16.1663 ], [ -71.455, -16.1636 ], [ -71.4641, -16.1639 ], [ -71.4729, -16.1737 ], [ -71.4776, -16.1838 ], [ -71.4939, -16.191 ], [ -71.5059, -16.2004 ], [ -71.5098, -16.1978 ], [ -71.5126, -16.1908 ], [ -71.5171, -16.189 ], [ -71.5258, -16.1908 ], [ -71.5315, -16.1943 ], [ -71.5368, -16.1931 ], [ -71.5505, -16.1976 ], [ -71.5678, -16.1994 ], [ -71.5715, -16.1972 ], [ -71.5745, -16.1976 ], [ -71.5792, -16.2007 ], [ -71.5814, -16.2085 ], [ -71.5894, -16.216 ], [ -71.5918, -16.2234 ], [ -71.5888, -16.2279 ], [ -71.5915, -16.244 ], [ -71.6012, -16.2538 ], [ -71.6004, -16.2568 ], [ -71.5947, -16.2604 ], [ -71.5928, -16.2786 ], [ -71.5972, -16.2836 ], [ -71.5951, -16.2916 ], [ -71.5989, -16.2994 ], [ -71.612, -16.3091 ], [ -71.6138, -16.3165 ], [ -71.6263, -16.3341 ], [ -71.6314, -16.3438 ], [ -71.6335, -16.3541 ], [ -71.6373, -16.3607 ], [ -71.6385, -16.369 ], [ -71.6428, -16.3712 ], [ -71.6438, -16.3752 ], [ -71.6468, -16.3779 ], [ -71.6502, -16.3907 ], [ -71.6523, -16.3916 ], [ -71.6535, -16.3884 ], [ -71.6549, -16.3927 ], [ -71.6586, -16.3949 ], [ -71.6811, -16.3925 ], [ -71.6849, -16.3953 ], [ -71.6861, -16.3941 ], [ -71.6854, -16.3902 ], [ -71.6929, -16.3935 ], [ -71.6947, -16.391 ], [ -71.6938, -16.3884 ], [ -71.6962, -16.3885 ], [ -71.6969, -16.384 ], [ -71.6997, -16.3854 ], [ -71.7012, -16.3838 ], [ -71.7132, -16.394 ], [ -71.7208, -16.3912 ], [ -71.7304, -16.3915 ], [ -71.7326, -16.3937 ], [ -71.7339, -16.3851 ], [ -71.7313, -16.3827 ], [ -71.7317, -16.3798 ], [ -71.7494, -16.3745 ], [ -71.7525, -16.3719 ], [ -71.7544, -16.3668 ], [ -71.7604, -16.3688 ], [ -71.7617, -16.3721 ], [ -71.7668, -16.3755 ], [ -71.7705, -16.3755 ], [ -71.779, -16.382 ], [ -71.7857, -16.3838 ], [ -71.7883, -16.3828 ], [ -71.7877, -16.3762 ], [ -71.7952, -16.377 ], [ -71.7977, -16.3792 ], [ -71.8032, -16.3759 ], [ -71.8058, -16.3765 ], [ -71.8065, -16.36 ], [ -71.7992, -16.355 ], [ -71.792, -16.3539 ], [ -71.7895, -16.3416 ], [ -71.7923, -16.3345 ], [ -71.7906, -16.3285 ], [ -71.7949, -16.3275 ], [ -71.7962, -16.3227 ], [ -71.7952, -16.3186 ], [ -71.8006, -16.3117 ], [ -71.8009, -16.3038 ], [ -71.8066, -16.2965 ], [ -71.8131, -16.2944 ], [ -71.8148, -16.2873 ], [ -71.8211, -16.2829 ], [ -71.822, -16.2753 ], [ -71.8307, -16.2667 ], [ -71.8327, -16.2627 ], [ -71.8379, -16.2588 ], [ -71.8436, -16.2575 ], [ -71.8533, -16.2496 ], [ -71.8686, -16.2307 ], [ -71.8725, -16.2278 ], [ -71.873, -16.2229 ], [ -71.8805, -16.2153 ], [ -71.8825, -16.211 ], [ -71.8829, -16.206 ], [ -71.8886, -16.1937 ], [ -71.8893, -16.1875 ], [ -71.8978, -16.1832 ], [ -71.8972, -16.1764 ], [ -71.8991, -16.169 ], [ -71.9063, -16.1596 ], [ -71.9037, -16.1554 ], [ -71.9036, -16.1506 ], [ -71.8893, -16.1458 ], [ -71.883, -16.1378 ], [ -71.8691, -16.1309 ], [ -71.869, -16.1222 ], [ -71.8664, -16.116 ], [ -71.865, -16.1029 ], [ -71.8509, -16.0965 ], [ -71.8445, -16.0898 ], [ -71.8401, -16.0832 ], [ -71.8382, -16.0705 ], [ -71.8329, -16.0675 ], [ -71.829, -16.0601 ], [ -71.82, -16.0631 ], [ -71.8171, -16.0595 ], [ -71.8176, -16.056 ], [ -71.816, -16.0527 ], [ -71.8071, -16.0497 ], [ -71.7905, -16.0385 ], [ -71.7749, -16.0336 ], [ -71.7652, -16.0342 ], [ -71.7569, -16.0306 ], [ -71.7397, -16.0173 ], [ -71.7364, -16.0102 ], [ -71.7362, -16.0034 ], [ -71.7306, -15.9984 ], [ -71.7251, -15.9888 ], [ -71.7078, -15.9838 ], [ -71.7064, -15.9681 ], [ -71.7119, -15.9472 ], [ -71.7047, -15.9337 ], [ -71.6974, -15.9325 ], [ -71.6916, -15.9342 ], [ -71.685, -15.9443 ], [ -71.6764, -15.9492 ], [ -71.6697, -15.9569 ], [ -71.664, -15.9608 ], [ -71.6529, -15.9807 ], [ -71.6531, -15.9859 ], [ -71.6517, -15.9882 ], [ -71.6441, -15.9878 ], [ -71.635, -15.9818 ], [ -71.6267, -15.979 ], [ -71.6094, -15.9835 ], [ -71.6022, -15.9818 ], [ -71.5929, -15.9864 ], [ -71.5776, -15.9904 ], [ -71.5724, -15.9876 ], [ -71.5654, -15.9798 ], [ -71.5618, -15.978 ], [ -71.548, -15.9596 ], [ -71.5438, -15.9571 ], [ -71.5421, -15.9512 ], [ -71.5352, -15.9442 ], [ -71.5321, -15.9439 ], [ -71.5322, -15.9335 ], [ -71.5303, -15.9304 ], [ -71.5045, -15.9257 ], [ -71.4897, -15.932 ], [ -71.484, -15.9291 ], [ -71.4684, -15.9263 ], [ -71.4556, -15.9304 ], [ -71.4516, -15.9346 ], [ -71.4429, -15.9257 ], [ -71.4358, -15.9258 ], [ -71.4264, -15.9316 ], [ -71.421, -15.9292 ], [ -71.4164, -15.9299 ], [ -71.406, -15.9253 ], [ -71.3924, -15.9258 ], [ -71.3807, -15.929 ], [ -71.3716, -15.9264 ], [ -71.3372, -15.9415 ], [ -71.3249, -15.9397 ], [ -71.3122, -15.9487 ], [ -71.3089, -15.9546 ], [ -71.3153, -15.9679 ], [ -71.3084, -15.9739 ], [ -71.3071, -15.9782 ], [ -71.2963, -15.9869 ], [ -71.2954, -15.9933 ], [ -71.2873, -16.0021 ], [ -71.2887, -16.0044 ], [ -71.2983, -16.0103 ], [ -71.3015, -16.0191 ], [ -71.3083, -16.0199 ], [ -71.3177, -16.0277 ], [ -71.3226, -16.0274 ], [ -71.3275, -16.0296 ], [ -71.3364, -16.0266 ], [ -71.3399, -16.027 ], [ -71.3444, -16.0311 ], [ -71.3522, -16.0301 ], [ -71.3585, -16.0342 ], [ -71.3607, -16.038 ], [ -71.3623, -16.045 ], [ -71.3603, -16.0568 ], [ -71.3625, -16.0611 ], [ -71.3646, -16.0732 ], [ -71.3629, -16.078 ], [ -71.3606, -16.08 ], [ -71.3489, -16.0828 ], [ -71.3455, -16.0858 ], [ -71.3436, -16.0909 ], [ -71.3458, -16.0931 ], [ -71.3409, -16.1034 ], [ -71.3374, -16.1082 ], [ -71.3354, -16.1079 ], [ -71.3319, -16.115 ], [ -71.3241, -16.119 ], [ -71.3226, -16.1206 ], [ -71.3236, -16.1227 ], [ -71.3146, -16.1281 ], [ -71.3128, -16.133 ], [ -71.3148, -16.1448 ], [ -71.3232, -16.1584 ], [ -71.3226, -16.1647 ], [ -71.3177, -16.1687 ], [ -71.3169, -16.1731 ], [ -71.3196, -16.1766 ], [ -71.3195, -16.1803 ], [ -71.323, -16.1827 ], [ -71.3222, -16.1849 ], [ -71.3255, -16.1917 ], [ -71.3257, -16.2052 ], [ -71.3308, -16.2102 ], [ -71.3325, -16.2183 ], [ -71.3392, -16.2255 ] ] ] ] } }
]
}
